ONEWEB-0271             
1 48989U 21060Y   26020.66074506 -.00000012  00000+0 -65205-4 0  9997
2 48989  87.9027 258.1448 0001264  73.0318 287.0952 13.16596041220250
ONEWEB-0272             
1 48990U 21060Z   26020.68290625 -.00000106  00000+0 -31115-3 0  9999
2 48990  87.9020 258.1531 0001470  70.5271 289.6018 13.16595063220206
ONEWEB-0273             
1 48991U 21060AA  26020.62908130  .00000025  00000+0  32222-4 0  9990
2 48991  87.9024 258.1613 0001287  78.0983 282.0292 13.16595986220172
ONEWEB-0274             
1 48992U 21060AB  26020.65440993  .00000036  00000+0  60278-4 0  9996
2 48992  87.9015 258.1747 0001647  68.5026 291.6280 13.16595707220212
ONEWEB-0275             
1 48993U 21060AC  26020.64332460  .00000075  00000+0  16377-3 0  9998
2 48993  87.9022 258.1514 0001407  75.6065 284.5222 13.16595081220143
ONEWEB-0276             
1 48994U 21060AD  26020.67657789 -.00000007  00000+0 -53039-4 0  9990
2 48994  87.9026 258.1446 0001311  85.1410 274.9871 13.16595210220165
ONEWEB-0277             
1 48995U 21060AE  26020.68924206  .00000779  00000+0  20031-2 0  9991
2 48995  87.9013 258.1622 0001329  79.8129 280.3152 13.16587498220155
ONEWEB-0278             
1 48996U 21060AF  26020.67974287 -.00000027  00000+0 -10463-3 0  9992
2 48996  87.9023 258.1402 0001556  88.1488 271.9821 13.16595776220287
ONEWEB-0279             
1 48997U 21060AG  26020.68765370 -.00000028  00000+0 -10797-3 0  9996
2 48997  87.9026 258.1373 0001331  68.7959 291.3314 13.16595980220219
ONEWEB-0280             
1 48998U 21060AH  26020.62670233 -.00000051  00000+0 -16804-3 0  9995
2 48998  87.9023 258.1549 0001176  91.6775 268.4491 13.16593987220148
ONEWEB-0281             
1 48999U 21060AJ  26020.63224857  .00000058  00000+0  11788-3 0  9995
2 48999  87.9023 258.1489 0001545  76.9124 283.2179 13.16595719220217
ONEWEB-0282             
1 49000U 21060AK  26020.66232584 -.00000016  00000+0 -74879-4 0  9995
2 49000  87.9022 258.1536 0001276  78.7781 281.3493 13.16595449220198
ONEWEB-0283             
1 49001U 21060AL  26020.65124138  .00000070  00000+0  14860-3 0  9991
2 49001  87.9024 258.1560 0001337  73.6585 286.4693 13.16595710220203
ONEWEB-0284             
1 49002U 21060AM  26020.64491391  .00000013  00000+0  13186-5 0  9998
2 49002  87.9026 258.1475 0001339  95.4218 264.7066 13.16594560220180
ONEWEB-0285             
1 49075U 21075A   26020.99807185 -.00000002  00000+0 -41966-4 0  9990
2 49075  87.8932  19.8815 0001711  88.4528 271.6796 13.12440013215905
ONEWEB-0286             
1 49076U 21075B   26020.98085382  .00000459  00000+0  12415-2 0  9996
2 49076  87.8925  19.9155 0002003  88.2512 271.8846 13.12443310215251
ONEWEB-0287             
1 49077U 21075C   26021.00237166  .00000085  00000+0  18455-3 0  9996
2 49077  87.9090  35.1178 0002264  94.7570 265.3820 13.17648483214247
ONEWEB-0288             
1 49078U 21075D   26020.95725726 -.00000089  00000+0 -28171-3 0  9996
2 49078  87.8929  19.8844 0001828  92.0808 268.0530 13.12442330215873
ONEWEB-0289             
1 49079U 21075E   26020.96508982  .00000031  00000+0  47278-4 0  9996
2 49079  87.9086  35.1377 0001608 104.3532 255.7778 13.17647519214819
ONEWEB-0290             
1 49080U 21075F   26020.55855682  .00000037  00000+0  62900-4 0  9990
2 49080  87.9092  35.1837 0001313 104.6348 255.4930 13.17649970214179
ONEWEB-0291             
1 49081U 21075G   26020.99898083  .00000142  00000+0  33222-3 0  9992
2 49081  87.9095  35.1036 0002035 101.9006 258.2354 13.17650892214229
ONEWEB-0293             
1 49082U 21075H   26020.94835764  .00000004  00000+0 -22923-4 0  9990
2 49082  87.9086  35.1302 0001735  96.5440 263.5889 13.17650662214242
ONEWEB-0294             
1 49083U 21075J   26020.96403072  .00000121  00000+0  30116-3 0  9997
2 49083  87.8935  19.8855 0001544  98.1357 261.9947 13.12445941215267
ONEWEB-0295             
1 49084U 21075K   26020.94749641  .00001115  00000+0  28382-2 0  9996
2 49084  87.9083  35.1347 0002125  99.0870 261.0502 13.17656917214209
ONEWEB-0296             
1 49085U 21075L   26020.94369835 -.00000425  00000+0 -12167-2 0  9999
2 49085  87.8929  19.8926 0002005  97.6547 262.4809 13.12440986215266
ONEWEB-0297             
1 49086U 21075M   26020.89797229  .00000304  00000+0  80903-3 0  9994
2 49086  87.8924  19.9308 0001869  89.7754 270.3588 13.12444116215863
ONEWEB-0298             
1 49087U 21075N   26020.95185708 -.00000025  00000+0 -96455-4 0  9997
2 49087  87.9084  35.1307 0001943  87.8410 272.2944 13.17646910214230
ONEWEB-0299             
1 49088U 21075P   26020.95341724  .00000060  00000+0  12171-3 0  9999
2 49088  87.9094  35.0961 0001991  93.4170 266.7189 13.17650895214210
ONEWEB-0300             
1 49089U 21075Q   26020.96659009  .00000279  00000+0  73982-3 0  9998
2 49089  87.8934  19.8810 0001962  78.5088 281.6261 13.12445485215890
ONEWEB-0301             
1 49090U 21075R   26020.95047255 -.00000546  00000+0 -15519-2 0  9993
2 49090  87.8930  19.8852 0001880  77.0394 283.0945 13.12443042215259
ONEWEB-0302             
1 49091U 21075S   26020.93693369 -.00000398  00000+0 -11423-2 0  9990
2 49091  87.8933  19.8967 0001729  99.9504 260.1820 13.12442699215231
ONEWEB-0304             
1 49092U 21075T   26021.00405023  .00000087  00000+0  19002-3 0  9993
2 49092  87.9094  35.1161 0001919  93.7726 266.3625 13.17648964214190
ONEWEB-0305             
1 49093U 21075U   26020.99730484  .00000069  00000+0  14499-3 0  9998
2 49093  87.9095  35.0956 0002218  96.2782 263.8602 13.17650071214229
ONEWEB-0308             
1 49094U 21075V   26021.00638716 -.00000342  00000+0 -98590-3 0  9997
2 49094  87.8935  19.8757 0001756  87.9446 272.1884 13.12439228215254
ONEWEB-0309             
1 49095U 21075W   26021.00066885  .00000099  00000+0  22156-3 0  9992
2 49095  87.9096  35.1102 0001679 105.1933 254.9384 13.17650792214198
ONEWEB-0310             
1 49096U 21075X   26020.94538989 -.00000379  00000+0 -10882-2 0  9999
2 49096  87.8924  19.9217 0001757  88.6395 271.4935 13.12441282215878
ONEWEB-0311             
1 49097U 21075Y   26021.00742699  .00000067  00000+0  13928-3 0  9990
2 49097  87.9093  35.1039 0002173  92.2144 267.9237 13.17648605214243
ONEWEB-0312             
1 49098U 21075Z   26020.79479717  .00000124  00000+0  28718-3 0  9991
2 49098  87.9081  35.1688 0002025 101.3319 258.8040 13.17651380214192
ONEWEB-0313             
1 49099U 21075AA  26020.95159916  .00000003  00000+0 -25362-4 0  9996
2 49099  87.9082  35.1444 0001943  93.0134 267.1220 13.17650509214201
ONEWEB-0314             
1 49100U 21075AB  26020.99391956  .00000056  00000+0  11008-3 0  9993
2 49100  87.9094  35.0934 0002100 100.8248 259.3120 13.17650613214184
ONEWEB-0315             
1 49101U 21075AC  26020.99454713  .00000183  00000+0  47408-3 0  9999
2 49101  87.8935  19.8638 0002155  85.3976 274.7398 13.12442243215861
ONEWEB-0316             
1 49102U 21075AD  26020.95847542 -.00000018  00000+0 -77712-4 0  9993
2 49102  87.9187   4.6964 0001901  84.8781 275.2568 13.18685488217809
ONEWEB-0317             
1 49103U 21075AE  26020.99791702  .00000085  00000+0  20053-3 0  9991
2 49103  87.8933  19.8852 0001072 101.6626 258.4623 13.12443265215887
ONEWEB-0318             
1 49104U 21075AF  26020.95517490 -.00000029  00000+0 -10555-3 0  9994
2 49104  87.9190   4.6853 0002104  85.5379 274.5993 13.18685964217767
ONEWEB-0319             
1 49105U 21075AG  26021.00910876  .00000090  00000+0  19932-3 0  9991
2 49105  87.9082  35.1201 0002369  86.6328 273.5075 13.17648524214221
ONEWEB-0323             
1 49106U 21075AH  26020.97929535  .00000439  00000+0  11861-2 0  9998
2 49106  87.8934  19.8713 0002472  91.1066 269.0346 13.12444394215247
ONEWEB-0329             
1 49107U 21075AJ  26020.78974467  .00000044  00000+0  79897-4 0  9999
2 49107  87.9080  35.1649 0001910  94.6871 265.4479 13.17649832214175
ONEWEB-0330             
1 49108U 21075AK  26020.79058380  .00000074  00000+0  15815-3 0  9990
2 49108  87.9084  35.1718 0001792  99.4273 260.7061 13.17649516214213
ONEWEB-0292             
1 49186U 21083A   26020.91427295  .00000019  00000+0  17169-4 0  9998
2 49186  87.9000 349.5235 0001962  82.2561 277.8791 13.13469836211590
ONEWEB-0303             
1 49187U 21083B   26020.95187401 -.00000042  00000+0 -13969-3 0  9996
2 49187  87.9194   4.6878 0001985  85.5714 274.5645 13.18686163210576
ONEWEB-0306             
1 49188U 21083C   26020.94197586 -.00000037  00000+0 -12736-3 0  9996
2 49188  87.9192   4.6737 0001557  86.5972 273.5339 13.18686985210617
ONEWEB-0307             
1 49189U 21083D   26020.90834804  .00000114  00000+0  27816-3 0  9993
2 49189  87.8998 349.5147 0001812  82.9498 277.1837 13.13468997211591
ONEWEB-0320             
1 49190U 21083E   26020.94940500 -.00000142  00000+0 -39356-3 0  9995
2 49190  87.9188   4.6992 0001784  86.2261 273.9075 13.18685784210570
ONEWEB-0321             
1 49191U 21083F   26020.77822189 -.00000048  00000+0 -15063-3 0  9993
2 49191  87.9233 303.8451 0001373  75.1217 285.0068 13.20772519217375
ONEWEB-0322             
1 49192U 21083G   26020.90411823  .00000252  00000+0  65607-3 0  9992
2 49192  87.9001 349.5191 0001383  71.3026 288.8253 13.13469810211587
ONEWEB-0324             
1 49193U 21083H   26020.93537838 -.00000027  00000+0 -10020-3 0  9992
2 49193  87.9191   4.6814 0001784  90.0347 270.0990 13.18685812210596
ONEWEB-0325             
1 49194U 21083J   26020.93866632 -.00000047  00000+0 -15246-3 0  9997
2 49194  87.9189   4.7002 0001772  83.3508 276.7825 13.18686127210607
ONEWEB-0326             
1 49195U 21083K   26020.95366664 -.00000076  00000+0 -22600-3 0  9994
2 49195  87.9192   4.6843 0002120  82.6519 277.4854 13.18685934210599
ONEWEB-0327             
1 49196U 21083L   26020.95339184 -.00000038  00000+0 -12876-3 0  9994
2 49196  87.9184   4.7006 0002099  78.8320 281.3048 13.18686457210618
